OBJECTID,facilityid,name,factype,fulladdr,municipality,agencytype,phone,agencyurl,operhours,pocphone,comments,CreationDate,EditDate,Delivery,GlobalID,geometry,lon,lat
1,,NO FRILLS GROCERY STORE,Grocery Store,100 Rainbow Rd,Chestermere,,,,8 a.m. to 10 p.m.,403-273-0111,,2020-03-27,2020-04-03,Not Available,{010FB492-C7F4-460A-B42D-E2F06FDEF632},POINT (-113.83939941059928 51.026105141328884),-113.83939941059928,51.026105141328884
2,,BEST WESTERN PLUS - 80 UNITS,Hotel,200 Marina Dr,Chestermere,,,https://www.bestwestern.com/en_US/book/hotel-rooms.61099.html?iata=00171890&ssob=BLBWI0003G&cid=BLBWI0003G:yext:website:61099,,587-349-7444,,2020-03-27,2020-04-03,,{632182AF-0AB6-4EA7-8D1C-13664B49681F},POINT (-113.82888908314753 51.05000665982974),-113.82888908314753,51.05000665982974
3,,RAINBOW FALLS DENTAL,Dental,214 - 100 Rainbow Rd,Chestermere,,,https://rainbowfallsdental.ca/,8: 30 a.m. to 4:30 p.m.,587-470-1447,,2020-03-27,2020-04-03,,{A4C54CA2-0D86-4665-BFCD-BBC040081B19},POINT (-113.84088527707982 51.02515599167252),-113.84088527707982,51.02515599167252
4,,LAVENDER NAILS & SPA,Cosmetic,101-100 Rainbow Rd,Chestermere,,,https://www.facebook.com/Lavender-NAILS-SPA-705056032945198/,10 a.m. to 7 p.m.,403-569-0404,,2020-03-27,2020-04-03,,{140A07F7-E9C0-4B17-B779-2D3951D99252},POINT (-113.84143499572806 51.02510857221406),-113.84143499572806,51.02510857221406
5,,PIZZA HUT,Restaurant,100 Rainbow Rd,Chestermere,,,https://www.pizzahut.ca/,11 a.m. to 11 p.m.,587-470-7927,delivery only,2020-03-27,2020-04-03,,{6E647D19-E263-4BDC-87C4-E3CE77EDC5D5},POINT (-113.8414340992094 51.02537133840354),-113.8414340992094,51.02537133840354
6,,PHARMACY GUARDIAN,Pharmacy,103 - 100 Rainbow Rd,Chestermere,,,https://www.guardian-ida-pharmacies.ca/en/alberta/chestermere/universal-health-5-chestermere-7032840?utm_source=Google&utm_medium=maps&utm_campaign=Local_Presence,9 a.m. to 7 p.m.,403-452-2228,,2020-03-27,2020-04-03,,{3F48F0F4-AB0C-4B8A-B4C0-570FDC2FAC7A},POINT (-113.84152970600677 51.02513800533777),-113.84152970600677,51.02513800533777
7,,FAMILY AND WALK-IN MEDICAL CLINIC,Medical Centre,,Chestermere,,,,,,,2020-03-27,2020-04-03,,{6C851D32-BF58-4D9D-86A6-F97A77D60B22},POINT (-113.84143689476655 51.0250639540896),-113.84143689476655,51.0250639540896
8,,CHESTERMERE REGIONAL FOOD BANK,Grocery Store,105 - 100 Rainbow Rd,Chestermere,,,http://chestermerefoodbank.ca/,11 a.m. to 1 p.m.,403-273-0777,,2020-03-27,2020-04-03,,{3501968F-975E-4D5A-8E5A-BE73951707E2},POINT (-113.8414325361408 51.02531735081309),-113.8414325361408,51.02531735081309
9,,REVITAL HEALTH,Medical Centre,106 - 100 Rainbow Rd,Chestermere,,,https://www.revitalhealth.ca/,9 a.m. to 8 p.m.,403-455-5275,,2020-03-27,2020-04-03,,{837DD209-2C86-4929-8D85-D0C9DA1B1955},POINT (-113.84143792423586 51.0252743895286),-113.84143792423586,51.0252743895286
10,,CENTER FOR COMMUNITY LEADERSHIP / PARK,Learning,101 - 340 Merganser Drive West,Chestermere,Municipal,403-207-7050,,,403-212-0242,,2020-03-27,2020-04-03,,{D5B0EA30-D2CC-4ED1-A476-C8012422B1D9},POINT (-113.84078032061699 51.03811390444975),-113.84078032061699,51.03811390444975
11,,ESSO,Gas Station,301 - 320 West Creek Dr,Chestermere,,,https://www.esso.ca/en-ca/find-station/200303021,Open 24 Hours,403-235-2852,,2020-03-27,2020-04-03,,{8A7E12AB-59C9-4F14-9345-54DB304AC759},POINT (-113.84126749945342 51.02904540016772),-113.84126749945342,51.02904540016772
12,,SHARP EDGE BARBERSHOP,Cosmetic,101 - 320 W Creek Dr,Chestermere,,,https://www.facebook.com/sharpedgebarbershopyyc/,10 a.m. to 7 p.m.,403-569-8183,,2020-03-27,2020-04-03,,{BF320F0F-1AD1-45C7-9614-37379A124DB8},POINT (-113.84046956820737 51.029736144279234),-113.84046956820737,51.029736144279234
13,,NEW APOSTOLIC CHURCH,House of Worship,133 Rainbow Falls Dr,Chestermere,,,https://www.facebook.com/pages/New-Apostolic-Church-Chestermere/297325173611380,,866-622-7828,,2020-03-27,2020-04-03,,{85479340-C7A1-49DE-B0B1-A220A65E48CA},POINT (-113.83985363114628 51.02875813534671),-113.83985363114628,51.02875813534671
14,,YACHT CLUB,Recreation,635 East Chestermere Dr,Chestermere,,,https://calgaryyachtclub.wildapricot.org/,Open 24 Hours,403-272-3300,,2020-03-27,2020-04-03,,{36C68F0E-9A21-4819-B360-3248DCF55665},POINT (-113.81037469285242 51.03392423864323),-113.81037469285242,51.03392423864323
15,,PIZZA LITE,Restaurant,101 - 288 Kinniburgh Blvd,Chestermere,,,https://www.pizzalite.ca/,2 a.m. to 11 p.m.,403-292-0000,delivery only,2020-03-27,2020-04-03,,{8D7F6427-D333-4793-8E45-C0DFD92A0E54},POINT (-113.81026732441302 51.02245668249565),-113.81026732441302,51.02245668249565
16,,DOCKSIDE BAR AND GRILL,Restaurant,109 East Chestermere Dr,Chestermere,,,https://www.docksidebarandgrill.com/,11 a.m. to 10 p.m.,403-248-4343,,2020-03-27,2020-04-03,,{BE430624-C4B6-49C5-A301-B2A3952F1D4B},POINT (-113.81653669193372 51.05176377892523),-113.81653669193372,51.05176377892523
17,,FIRE HALL/RCMP,Emergency Services,156 East Chestermere Dr,Chestermere,,,,8:30 a.m. to 5 p.m.,403-204-8900,,2020-03-27,2020-04-03,,{45A241C7-8917-4D98-B20D-BA92326D21B0},POINT (-113.81410807051196 51.050763552765176),-113.81410807051196,51.050763552765176
18,,E.C.I PRESCHOOL,Learning,140 East Chestermere Dr,Chestermere,,,http://www.ecipreschool.com/index.html,,403-457-3168,,2020-03-27,2020-04-03,,{CB46197D-B53D-416B-923D-5775F28ECB22},POINT (-113.81423238297424 51.051746514999884),-113.81423238297424,51.051746514999884
19,,AVLEEN BEAUTY SUPPLIES INC,Cosmetic,10 - 140 East Chestermere Dr,Chestermere,,,https://www.avleenorganicspa.ca/,10 a.m. to 7 p.m.,403-387-0003,,2020-03-27,2020-04-03,,{FB754543-3323-4DB1-B370-5B6D0BEBAA1A},POINT (-113.81463790674802 51.0511107184106),-113.81463790674802,51.0511107184106
20,,SUBWAY,Restaurant,124 East Chestermere Dr,Chestermere,,,https://www.subway.com/en-CA,7 a.m. to 9 p.m.,403-248-7022,,2020-03-27,2020-04-03,,{836BC42D-3F68-4ABC-AD6E-620BD61C01FF},POINT (-113.81509503783653 51.05209890120588),-113.81509503783653,51.05209890120588
21,,ANNIVERSARY PARK,Park,208 West Chestermere Dr,Chestermere,,,https://www.chestermere.ca/446/Beach-at-Anniversary-Park?utm_source=TravelAlberta-ATIS&utm_medium=TravelAlberta&utm_campaign=ATIS+-+Alberta+Tourism+Information+Service&utm_content=Listing%2f11366%2fen-CA,5 a.m. to 12 a.m.,403-207-7079,,2020-03-27,2020-04-03,,{AD37D573-3151-48A7-8496-86298BB2D145},POINT (-113.82103062822857 51.04867288822847),-113.82103062822857,51.04867288822847
22,,WEST CREEK AUTO WASH,Automobile Services,200 Merganser Drive West,Chestermere,,,www.westcreekautowash.com,6 a.m. to 10 p.m.,403-569-8399,,2020-03-27,2020-04-03,,{1FD2EE72-123C-4E23-AC0E-4890AE0BF980},POINT (-113.84141403264258 51.03647801476773),-113.84141403264258,51.03647801476773
23,,LIFEMARK PHYSIOTHERAPY,Medical Centre,203 - 300 Merganser Drive West,Chestermere,Private,,www.lifemark.ca,Unavaliable,403-476-1900,,2020-03-27,2020-04-03,,{9B5EC024-58F9-4524-89F0-798A8A2E4C44},POINT (-113.84003689554909 51.037714630022904),-113.84003689554909,51.037714630022904
24,,LAKE MED CLINIC,Medical Centre,202 - 300 Merganser Drive West,Chestermere,Private,,www.lakemed.ca,"8 a.m. to 1 p.m., 2 to 5:30 p.m.",403-235-3343,,2020-03-27,2020-04-03,,{BEC73221-0273-4E0A-918B-D0CEE59D6247},POINT (-113.84014160856849 51.03765704051699),-113.84014160856849,51.03765704051699
25,,RECREATION CENTER/BALL DIAMONDS,Recreation,201 W Chestermere Dr,Chestermere,,,https://www.chestermerecrca.com/,10 a.m. to 5 p.m.,403-272-7170,,2020-03-27,2020-04-03,,{4E8AC2EB-3B46-4C82-A90D-AE83C4615BCF},POINT (-113.82382854347037 51.04774875252225),-113.82382854347037,51.04774875252225
26,,J.P. PARK,Park,100 John Morris Way,Chestermere,,,https://www.chestermere.ca/Facilities/Facility/Details/John-Peake-Memorial-Park-3,,403-207-7051,,2020-03-27,2020-04-03,,{524FB30E-B12D-4624-8225-C41A120899C4},POINT (-113.8239904216812 51.05374531088142),-113.8239904216812,51.05374531088142
27,,CHESTERMERE STORAGE,Storage,"281119 Township Road 240, Chestermere",Chestermere,,,http://www.chestermerestorage.com/,Unavailable,403-398-5432,,2020-03-27,2020-04-03,,{285FAC6A-E193-4BCA-B9CC-39ABB0B6A137},POINT (-113.80620194020423 51.007640036369615),-113.80620194020423,51.007640036369615
28,,SHOPPERS DRUG MART,Retail,300 - 196 Chestermere Station Way,Chestermere,,,https://stores.shoppersdrugmart.ca/en/store/2308/?utm_source=G&utm_medium=lpm&utm_campaign=LPM%20_SDM,8 a.m. to 10 p.m.,403-207-1875,,2020-03-27,2020-04-03,,{81787DB9-CA3A-416F-BC9F-0085261E1D71},POINT (-113.82782400461407 51.047830293320985),-113.82782400461407,51.047830293320985
29,,Jiffy Lube,Automobile Services,100 - 196 Chestermere Station Way,Chestermere,,,https://jiffylubeservice.ca/locations/chestermere/jiffy-chestermere/?utm_source=google&utm_medium=gmb&utm_content=1045,9 a.m. to 6 p.m.,403-235-3545,,2020-03-27,2020-04-03,,{BED34821-8AE1-4821-A3DB-D6D81516E93D},POINT (-113.82588840826466 51.048866930157125),-113.82588840826466,51.048866930157125
30,,RBC,Bank,196 Chestermere Station Way,Chestermere,,,,9:30 a.m. to 5 p.m.,403-204-5177,,2020-03-27,2020-04-03,,{1D894946-FDCE-4304-9CBC-BB40F7EB204E},POINT (-113.82776699932276 51.048443078969974),-113.82776699932276,51.048443078969974
31,,STAR LIQUOR & WINE BOUTIQUE,Liquor Store,113 - 180 Marina Dr,Chestermere,,,,11 a.m. to 10 p.m.,587-470-0405,,2020-03-27,2020-04-03,,{3545DF38-5C8C-441E-83F6-B036B7C54522},POINT (-113.82927814170044 51.04941966839355),-113.82927814170044,51.04941966839355
32,,CANADIAN BREWHOUSE,Restaurant,200 - 180 Marina Dr,Chestermere,,,www.thecanadianbrewhouse.com,11 a.m. to 1 a.m.,587-535-4054,,2020-03-27,2020-04-03,,{6DE6A1BD-40CB-4A71-AD10-F544813256D0},POINT (-113.8285027042691 51.0496002001375),-113.8285027042691,51.0496002001375
33,,Mary Brown's Chicken & Taters,Restaurant,408 - 100 Marina Dr,Chestermere,,,https://marybrowns.com/,11 a.m. to 9 p.m.,587-470-0123,take out/delivery only,2020-03-27,2020-04-03,,{396D3297-AE36-4BC7-A08C-0CDC5A74B282},POINT (-113.82927319108492 51.04823492805739),-113.82927319108492,51.04823492805739
34,,COBBS BREAD,Bakery,102 - 100 Marina Dr,Chestermere,,,https://www.cobsbread.com/local-bakery/chestermere-station/,7 a.m. to 7 p.m.,403-775-9273,,2020-03-27,2020-04-03,,{7A0D41F5-AEC1-4E46-96B3-3DB11D38C2E1},POINT (-113.82858095112361 51.047026467646866),-113.82858095112361,51.047026467646866
35,,STORE & MORE STORAGE,Storage,243232 Rainbow Rd,Chestermere,,,https://www.sentinel.ca/en/self-storage/chestermere/?utm_source=Google_Maps?utm_source=Google_Maps,9 a.m. to 5 p.m.,587-875-5557,,2020-03-27,2020-04-03,,{7109DC49-D60B-4E82-BBE5-41E5E9B8393A},POINT (-113.8395386836043 51.06564095918178),-113.8395386836043,51.06564095918178
36,,LAKESIDE GREENS GOLF AND COUNTRY CLUB,Sports Facility,555 Lakeside Greens Dr,Chestermere,,,https://www.lakesidegreens.com/,5am to 9pm,403-569-9111,Open with safety measures in place,2020-03-27,2020-04-03,,{344B526E-D79E-4DAE-943B-7ACB568625E4},POINT (-113.82717854172624 51.03859999922564),-113.82717854172624,51.03859999922564
37,,PETRO CANADA STATION CONVIENCE STORE,Convenience store,140 Chestermere Station Way,Chestermere,,,https://www.petro-canada.ca/en/personal/gas-station-locations/140-chestermere-station-way-chestermere?utm_source=G&utm_medium=lpm&utm_campaign=suncor,Open 24 Hours,403-248-0354,,2020-03-27,2020-04-03,,{70ED615A-6C80-450C-B8B9-F376CF89D7E6},POINT (-113.82402318323962 51.04990624541192),-113.82402318323962,51.04990624541192
38,,PETRO CANADA STATION,Gas Station,140 Chestermere Station Way,Chestermere,,,,Open 24 Hours,403-248-0354,,2020-03-27,2020-04-03,,{7F43FCF0-1EFF-4993-97DF-EC943EBD3920},POINT (-113.82435038739533 51.05011864960523),-113.82435038739533,51.05011864960523
39,,SAFEWAY,Grocery Store,100 - 135 Chestermere Station Way,Chestermere,,,https://www.safeway.ca/store/safeway-chestermere/?utm_source=G&utm_medium=lpm&utm_campaign=Sobeys,7 a.m. to 8 p.m.,403-410-9700,,2020-03-27,2020-04-03,,{2509DD47-4FF4-4204-9F53-ED6FAD33A4FD},POINT (-113.82599070391761 51.05116152490428),-113.82599070391761,51.05116152490428
40,,BRIGHTPATH KIDS CORP,,100 Main St,Chestermere,,,https://brightpathkids.com/locations/chestermere/,6 a.m. to 6 p.m.,1-888-808-2252,,2020-03-27,2020-04-03,,{4CFAEFE6-2010-4781-A1CD-EE19314408D6},POINT (-113.82431616876953 51.051277242880865),-113.82431616876953,51.051277242880865
41,,SCOTIA BANK,Bank,175 Chestermere Station Way,Chestermere,,,https://www.scotiabank.com/global/en/global-site.html,9:30 a.m. to 3 p.m.,403-366-2032,,2020-03-27,2020-04-03,,{5223DD05-01D4-40FD-B6BF-25239456FCB5},POINT (-113.82633692720455 51.04924668409926),-113.82633692720455,51.04924668409926
42,,Magic Nails & Spa,Cosmetic,206 - 175 Chestermere Station Way,Chestermere,,,https://www.facebook.com/pages/Magic-Nails-Spa/2188934367800153,10 a.m. to 7 p.m.,403-273-8881,,2020-03-27,2020-04-03,,{C6EE1656-7FFA-4AD8-8E32-7309689BCFF8},POINT (-113.82756015504206 51.049859342018166),-113.82756015504206,51.049859342018166
43,,Chestermere Fabricare,,111 - 175 Chestermere Station Way,Chestermere,,,,Unavailable,403-410-9266,,2020-03-27,2020-04-03,,{F085E4A2-CF22-4F33-AD8B-093D67E0C6FA},POINT (-113.82643518223537 51.05072475947377),-113.82643518223537,51.05072475947377
44,,F45 Fitness,Fitness Facility,105 - 288 Kinniburgh Blvd,Chestermere,,,https://f45training.ca/chestermere/home,,587-387-2330,,2020-03-27,2020-04-03,,{832A50A4-5519-441E-AA60-FC67C26BAFE2},POINT (-113.8101432275464 51.02243561500044),-113.8101432275464,51.02243561500044
45,,CIBC BANK,Bank,200 - 100 MARINA DR,Chestermere,,(780) 423-6931,,,403-263-4444,,2020-03-27,2020-04-03,,{9E8DF9DB-F8CD-461E-AD34-D361C0CE0186},POINT (-113.82922794114742 51.04645614184137),-113.82922794114742,51.04645614184137
46,,Starbucks,Coffee/Food,101 - 100 Marina Dr,Chestermere,,,,7 a.m. to 7 p.m.,403-235-3660,drive thru only,2020-03-27,2020-04-03,,{89565F8D-BD5F-4FCC-BE5E-7E7089616F59},POINT (-113.8285265024376 51.0470813793019),-113.8285265024376,51.0470813793019
47,,NO FRILLS GAS STATION,Gas Station,100 Rainbow Rd,Chestermere,,,,8 a.m. to 10 p.m.,1-800-567-8683,,2020-03-27,2020-04-03,,{871A801F-624D-49F9-8328-48241F057F36},POINT (-113.84177265268042 51.02592634809331),-113.84177265268042,51.02592634809331
48,,NO FRILLS LIQUORSTORE,Liquor Store,100 Rainbow Rd,Chestermere,,,,10 a.m. to 10 p.m.,403-273-9003,,2020-03-27,2020-04-03,,{7AB97B1E-4CB8-4648-976C-CDD1B25A3FE4},POINT (-113.84169326855876 51.026288518347954),-113.84169326855876,51.026288518347954
49,,FORTIS ALBERTA (Internal Office),Utility Services,100 Rainbow Rd,Chestermere,,,,,,,2020-03-27,2020-04-03,,{0F2CA688-3D33-47AB-A8EC-4F0FF5F3858B},POINT (-113.84142954205595 51.02517081388066),-113.84142954205595,51.02517081388066
50,,EPCOR (Internal Office),Utility Services,105 Marina Drive,Chestermere,,,,,,,2020-03-27,2020-04-03,,{281AF767-7B44-4D0D-BC6D-B6E40375ACCC},POINT (-113.84143202589772 51.02495487407293),-113.84143202589772,51.02495487407293
51,,Dairy Queen Grill & Chill,Restaurant,301 - 100 Marina Dr,Chestermere,,,dairyqueen.com,10 a.m. to 10 p.m.,403-204-8811,take out/drive thru only,2020-03-27,2020-04-03,,{D7702274-7EDC-4D8C-96B3-4AFD369DBE15},POINT (-113.82928917930035 51.047325893536026),-113.82928917930035,51.047325893536026
52,,Sobeys Liquor Chestermere,Liquor Store,103 - 156 Chestermere Station Way,Chestermere,,,https://liquor.sobeys.com/stores/chestermere/?utm_source=G&utm_medium=lpm&utm_campaign=Sobeys,10 a.m. to 8 p.m.,403-204-2140,,2020-03-27,2020-04-03,,{DA684F38-C6E8-4ABA-8D63-730552232799},POINT (-113.82446340174629 51.04979818558217),-113.82446340174629,51.04979818558217
53,,TIM HORTONS,Coffee/Food,300 - 120 Chestermere Station Way,Chestermere,,,https://www.timhortons.ca/,Open 24 Hours,403-248-0000,,2020-03-27,2020-04-03,,{DD294538-5412-4A49-83AE-9BD4EB61FD74},POINT (-113.82294011953584 51.050529532091645),-113.82294011953584,51.050529532091645
54,,A&W,Restaurant,200 - 120 Chestermere Station Way,Chestermere,,,https://web.aw.ca/en/home,5:30 a.m. to 12 a.m.,403-235-1811,,2020-03-27,2020-04-03,,{21F6F5EE-2E20-4162-8C8C-463CEC49BEF2},POINT (-113.8237986403512 51.050570848678625),-113.8237986403512,51.050570848678625
55,,JUGO JUICE,Restaurant,120 John Morris Way,Chestermere,,,https://www.jugojuice.com/,9 a.m. to 7 p.m.,403-235-0082,,2020-03-27,2020-04-03,,{92FF2473-A3EC-480F-A734-F731F3BA129C},POINT (-113.822986166279 51.05078317754117),-113.822986166279,51.05078317754117
56,,Pho Lan,Restaurant,402 Merganser Drive West,Chestermere,Private,,,11 a.m. to 9 p.m.,403-207-9222,take out/delivery only,2020-03-27,2020-04-03,,{022DD3EB-E60E-40A3-97FA-669118337EA2},POINT (-113.83863992545075 51.038423008078375),-113.83863992545075,51.038423008078375
57,,Bannock Bar & Grill,Restaurant,400 Merganser Drive West,Chestermere,Private,,,4 p.m. to 8 p.m.,403-901-7612,can't find think its gone,2020-03-27,2020-04-03,,{FE6FB2E9-B993-4FC9-A012-FC68A35838BF},POINT (-113.83903346300369 51.03818219076014),-113.83903346300369,51.03818219076014
58,,Mos Liquor Store,Liquor Store,401 Merganser Drive West,Chestermere,Private,,,12 p.m. to 10 p.m.,403-569-0009,,2020-03-27,2020-04-03,,{DC0250C7-AC78-4001-B701-A62C71F8E55C},POINT (-113.83876664270304 51.03836778791307),-113.83876664270304,51.03836778791307
59,,Chestermere Bottle Depot,Bottle Depot,101 - 260 Marina Dr,Chestermere,,,https://www.findadepot.ca/,10 a.m. to 4:30 p.m.,403-248-1117,,2020-03-27,2020-04-03,,{9DF32AAB-D94C-445C-95FB-FEAB56C77B4E},POINT (-113.82752758931639 51.05061544168314),-113.82752758931639,51.05061544168314
60,,HARVEY'S/SWISS CHALET,Restaurant,175 Chestermere Station Way,Chestermere,,,harveys.ca,11 a.m. to 7 p.m.,403-248-8099,,2020-03-27,2020-04-03,,{B99E8DF6-272D-4547-9938-72C91F3C4F09},POINT (-113.82765623165834 51.0490962996471),-113.82765623165834,51.0490962996471
61,,Fauna Animal Hospital,Vet,211 - 175 Chestermere Station Way,Chestermere,,,https://www.faunavetchestermere.com/aboutus.html,8 a.m. to 7 p.m.,403-263-7800,,2020-03-28,2020-04-03,,{CECA23CB-F9C8-4660-9F71-2ACF41870E06},POINT (-113.82756294071777 51.05001644809626),-113.82756294071777,51.05001644809626
62,,Luna Hair Salon,Cosmetic,214 - 175 Chestermere Station Way,Chestermere,,,https://www.lunahair.ca/,10 a.m. to 8 p.m.,403-387-0116,,2020-03-28,2020-04-03,,{550B0303-FDC2-49BA-AC7B-89A48631B7D8},POINT (-113.82757190770094 51.05017992646744),-113.82757190770094,51.05017992646744
63,,Plantlife Canada,,205 - 175 Chestermere Station Way,Chestermere,,,https://plantlifecanada.com/,10 a.m. to 10 p.m.,587-316-8914,,2020-03-28,2020-04-03,,{3AACF9F0-6380-4614-ADA4-D99DB025D41B},POINT (-113.82756844828877 51.04976093034854),-113.82756844828877,51.04976093034854
64,,M&M Food Market,Grocery Store,202 - 175 Chestermere Station Way,Chestermere,,,https://www.mmfoodmarket.com/en/grocery-stores/chestermere-station/514,10 a.m. to 8 p.m.,403-235-4922,,2020-03-28,2020-04-03,,{D46BE501-70A5-4B7A-9A08-AF41572CB498},POINT (-113.8275824907533 51.04958118363248),-113.8275824907533,51.04958118363248
65,,Oasis Medical Centre,Medical Centre,201 - 175 Chestermere Station Way,Chestermere,,,http://www.oasismedicalclinic.ca/,9 a.m. to 5:30 p.m.,587-774-3132,,2020-03-28,2020-04-03,,{BD7C4C9E-1F4E-41A2-A008-DCBB13F00977},POINT (-113.8275824907533 51.04947806551816),-113.8275824907533,51.04947806551816
68,,Chestermere Optometry,Medical Centre,110 - 175 Chestermere Station Way,Chestermere,,,https://chestermereoptometry.com/,9 a.m. to 5:30 p.m.,587-319-0815,Re opened as of Monday May 11th,2020-03-28,2020-04-03,,{CFECD281-3913-49DB-8450-046C07C61DE7},POINT (-113.82654630024273 51.050671538928356),-113.82654630024273,51.050671538928356
69,,Dominos,Restaurant,109 - 175 Chestermere Station Way,Chestermere,,,dominos.ca,,403-204-7955,,2020-03-28,2020-04-03,,{9B115924-D68E-4280-9B4C-522EE7F3C4D6},POINT (-113.8266521262748 51.05062829733134),-113.8266521262748,51.05062829733134
70,,Medspa,Cosmetic,106 - 175 Chestermere Station Way,Chestermere,,,https://www.lifepathmedspa.com/?utm_source=GMB_Listing&utm_medium=Organic&utm_campaign=Website_URL,7 a.m. to 8 p.m.,587-349-5850,,2020-03-28,2020-04-03,,{40533B25-35AC-41D7-A34D-50A3B7C74479},POINT (-113.82674737015279 51.0505684238064),-113.82674737015279,51.0505684238064
71,,Lifepath Wellness,Medical Centre,175 Chestermere Station Way,Chestermere,,,lifepathwellness.com,8 a.m. to 8 p.m.,403-235-6208,,2020-03-28,2020-04-03,,{2DBC82EA-9A07-491D-9FF1-EFEA55DABF70},POINT (-113.82684261403078 51.05051187692519),-113.82684261403078,51.05051187692519
72,,Malek's Men's Hairstyle,Cosmetic,175 Chestermere Station Way,Chestermere,,,https://www.facebook.com/pages/Maleks-Mens-Hair-Styling-Barber/1747648295447053,9:30 a.m. tp 6 p.m.,403-569-0059,,2020-03-28,2020-04-03,,{CE68D329-F047-4037-966C-E37436F6495E},POINT (-113.82757373936582 51.049671118632475),-113.82757373936582,51.049671118632475
73,,Anytime Fitness,Fitness Facility,303 - 100 Marina Dr,Chestermere,,,https://www.anytimefitness.com/gyms/3142/Chestermere-AB-T1X-0A9/?utm_source=google&utm_medium=local&utm_campaign=localmaps&utm_content=3142,,1-888-261-8758,,2020-03-28,2020-04-03,,{4C4A33D3-A25C-4B8A-8BED-8E82729C5322},POINT (-113.82927297459094 51.04746883017259),-113.82927297459094,51.04746883017259
74,,Van Son Vietnamese,Restaurant,100 Marina Dr,Chestermere,,,https://vansoncuisine.ca/,11 a.m. to 8 p.m.,403-248-8311,,2020-03-28,2020-04-03,,{579D46DD-E70D-4171-8FC0-7E2F76A1C9E4},POINT (-113.82927297459094 51.04761114288645),-113.82927297459094,51.04761114288645
75,,"Vape, Ejuice Vaporizers",Retail,407 - 100 Marina Dr,Chestermere,,,https://vape-store-cigar-shop-cheap-smokes-shisha-lounge.business.site/,8:30 a.m. to 9 p.m.,587-470-8322,,2020-03-28,2020-04-03,,{4B21BC3C-5F26-4F69-83CF-9814F43DFAE4},POINT (-113.82926881718781 51.048100985605416),-113.82926881718781,51.048100985605416
76,,ATB,Bank,600 - 100 Marina Dr,Chestermere,,,https://www.atb.com/resources/find-a-location/chestermere-branch/,10 a.m. to 4 p.m.,403-731-3838,,2020-03-28,2020-04-03,,{A934EAAA-0C89-4183-B954-9F91AFE78C6E},POINT (-113.82868637920198 51.04863008187063),-113.82868637920198,51.04863008187063
77,,THE CO-OPERATORS,Insurance,109 - 300 Merganser Drive West,Chestermere,Private,,www.cooperators.ca,9 a.m. to 5 p.m.,403-248-9644,,2020-03-28,2020-04-03,,{FAB1C268-CE92-4C2E-A637-A6C5B392FF61},POINT (-113.83978466209204 51.037695984275835),-113.83978466209204,51.037695984275835
78,,AMPLIFON HEARING CLINIC,Medical Centre,106A - 300 Merganser Drive West,Chestermere,Private,,amplifon.com,9 a.m. to 6 p.m.,403-723-4000,,2020-03-28,2020-04-03,,{8008927E-0C6A-4462-8222-9734FAB052FF},POINT (-113.84023063610474 51.03767642908236),-113.84023063610474,51.03767642908236
79,,WEST CREEK PUB,Restaurant,102 - 300 Merganser Drive West,Chestermere,Private,,,10 a.m. to 2 a.m.,403-204-2337,,2020-03-28,2020-04-03,,{B4C55E4C-7022-4C3A-8052-AD16EBF4842B},POINT (-113.84019868123345 51.03724880042578),-113.84019868123345,51.03724880042578
80,,YOUR DOLLAR STORE WITH MORE,Retail,100 Rainbow Rd,Chestermere,,,https://www.dollarstore.ca/,9 a.m. to 9 pm.,403-569-0330,,2020-03-28,2020-04-03,,{B39CC899-FC4B-4093-946A-FEFD61D1F3DE},POINT (-113.84065481070041 51.02516178992335),-113.84065481070041,51.02516178992335
81,,TOWNSHIP 24,Restaurant,210 - 100 Rainbow Rd,Chestermere,,,http://www.township24.ca/,,403-460-8696,,2020-03-28,2020-04-03,,{D1E373E7-CC42-4F99-9184-6AF55A03B65F},POINT (-113.84042434432101 51.02516178992335),-113.84042434432101,51.02516178992335
82,,CTC MARTIAL ARTS & FITNESS CENTRE,Fitness Facility,207 - 100 Rainbow Rd,Chestermere,,,https://canadiantkdcollege.ca/,4:30 - 9:15 p.m.,403-277-3420,,2020-03-28,2020-04-03,,{CF8F8F7B-6C8F-4B65-A907-3276C7B163BC},POINT (-113.84015700389585 51.02516178992335),-113.84015700389585,51.02516178992335
83,,SUMMIT START CHESTERMERE,Learning,201 - 100 Rainbow Rd,Chestermere,,,https://summitkids.ca/chestermere-start/,7 a.m. to 6 p.m.,403-273-0662,,2020-03-28,2020-04-03,,{CFF0DB73-9201-4931-9218-B7F418AE21B1},POINT (-113.8398988819821 51.02516178992335),-113.8398988819821,51.02516178992335
84,,CRAZY PASTA,Restaurant,405 - 320 West Creek Drive,Chestermere,,,https://crazypastachesterm.wixsite.com/mysite/,11 a.m. to 9 p.m.,403-454-4022,take out/delivery only,2020-03-28,2020-04-03,,{868FC911-87CD-4F30-9DDD-53BB1B9E729D},POINT (-113.84163863661645 51.02974162557642),-113.84163863661645,51.02974162557642
85,,REFLECTIONS MEDICAL CLINIC,Medical Centre,102 - 320 West Creek Dr,Chestermere,,,https://www.reflectionsmc.com/,8 a.m. to 4 p.m.,587-333-3751,,2020-03-28,2020-04-03,,{E8C904BE-8AEA-4CA9-9C6F-BB9CD49FF10A},POINT (-113.84050570563463 51.02964068983126),-113.84050570563463,51.02964068983126
86,,REFLECTIONS PHARMACY,Pharmacy,104 - 320 W Creek Dr,Chestermere,,,,9 a.m. to 5 p.m.,403-454-0020,,2020-03-28,2020-04-03,,{E076CA08-D837-4982-9804-9A712F842935},POINT (-113.84053591328268 51.02958939476381),-113.84053591328268,51.02958939476381
87,,DELHI EXPRESS,Restaurant,105 - 320 West Creek Drive,Chestermere,,,http://www.delhiexpress.ca/,4 - 9 p.m.,403-454-1616,,2020-03-28,2020-04-03,,{536E7D87-B879-4EB9-B505-8D5F09D1ACFF},POINT (-113.84056914196503 51.02954189905023),-113.84056914196503,51.02954189905023
88,,CANADIAN PIZZA UNLIMITED,Restaurant,107-320 West Creek Drive,Chestermere,,,http://www.canadianpizzaunlimited.ca/,10:30 a.m. - 1 a.m.,403-272-0040,,2020-03-28,2020-04-03,,{7C3F7E98-D9DF-4BEA-81D5-48550F006286},POINT (-113.84059330844279 51.02949440328794),-113.84059330844279,51.02949440328794
89,,OBSIDIAN ROSE TATTOO,Cosmetic,106 -320 West Creek Drive,Chestermere,,,http://www.obsidianrosetattoo.com/,9 a.m. to 6 p.m.,403-272-9799,,2020-03-28,2020-04-03,,{5F3319E1-5D91-448D-AF73-520CFAEFD134},POINT (-113.84089934379885 51.02887619518607),-113.84089934379885,51.02887619518607
90,,MANREX,,106 -320 West Creek Drive,Chestermere,,,https://manrex.com/en/home/,9 a.m. to 5 p.m.,403-986-5475,,2020-03-28,2020-04-03,,{16567965-5DF5-4000-B6F8-85775B4CECBC},POINT (-113.84082854487636 51.02898346709519),-113.84082854487636,51.02898346709519
91,,CENTEX,Gas Station,124 East Chestermere Dr,Chestermere,,,https://www.centexpetroleum.com/,5:30 a.m. to 11 p.m.,403-272-9557,,2020-03-28,2020-04-03,,{796EB817-BAD5-4012-8DA3-DE4E59006B97},POINT (-113.81508559833952 51.05175472569917),-113.81508559833952,51.05175472569917
92,,CHOICE PIZZA,Restaurant,8 - 140 East Chestermere Drive,Chestermere,,,https://choice-pizza.business.site/?utm_source=gmb&utm_medium=referral,2 - 10:30 p.m.,403-264-7575,,2020-03-28,2020-04-03,,{4C60CF39-09F6-4C8E-A89A-17AD6A9D3482},POINT (-113.81436454132222 51.05187113055782),-113.81436454132222,51.05187113055782
93,,EXPEDIA CRUISE SHIP CENTRES,Travel Agency,16 - 140 East Chestermere Dr,Chestermere,,,https://www.cruiseshipcenters.com/en-CA/200014,10 a.m. to 5:30 p.m.,403-263-3500,Available by phone and email only at this time.,2020-03-28,2020-04-03,,{DECAC7AE-A524-4DD0-AF07-D3894679A1F6},POINT (-113.8141285440156 51.05153288722633),-113.8141285440156,51.05153288722633
94,,CHESTERMERE VETERINARY CLINIC,Vet,34 - 140 E Chestermere Dr,Chestermere,,,https://www.chestermerevet.com/,9 a.m. to 8 p.m.,403-272-3573,,2020-03-28,2020-04-03,,{0FC01303-3417-4B34-A36E-389CC3349209},POINT (-113.81450997677007 51.05116862098075),-113.81450997677007,51.05116862098075
96,,CHESTERMERE FAMILY CHIROPRACTIC & MASSAGE CLINIC,Medical Centre,"C, 124 East Chestermere Drive",Chestermere,,,https://www.chestermerefamilychiro.com/,9 a.m. to 6 p.m.,403-235-3717,,2020-03-28,2020-04-03,,{C7ED7803-D413-4919-949A-77CEEB319956},POINT (-113.8148057246195 51.05146484082712),-113.8148057246195,51.05146484082712
97,,LIBERTY TAX,Accounting Services,32 - 140 East Chestermere Dr,Chestermere,,,https://www.libertytaxcanada.ca/income-tax-preparation-locations/ab-chestermere-32-140-east-chestermere-dr.html?utm_campaign=yext_gmb&utm_source=gmb&utm_medium=organic&utm_content=local_business_listings,10 a.m. to 7 p.m.,587-317-3284,,2020-03-28,2020-04-03,,{8E4F61D9-94E7-40D9-975A-20F5ED66F1F7},POINT (-113.81504182882561 51.051305987954336),-113.81504182882561,51.051305987954336
99,,FIT BODY BOOT CAMP,Fitness Facility,107A- 300 Merganser Drive West,Chestermere,Private,,www.fitbodybootcamp.com,Unavaliable,403-460-3222,,2020-03-28,2020-04-03,,{788DCC72-F508-4547-8EB2-3E2EE701AEA2},POINT (-113.84013810873215 51.03771408097075),-113.84013810873215,51.03771408097075
100,,CHETSERMERE BARBER SHOP & STYLING,Cosmetic,108 - 300 Merganser Drive West,Chestermere,Private,,,10 a.m. to 6:30 p.m.,403-387-0747,,2020-03-28,2020-04-03,,{10130D30-BAF5-4C8F-B305-F0A382F604B0},POINT (-113.83988550427088 51.037694772067624),-113.83988550427088,51.037694772067624
101,,JAFFERY OPTICAL,Medical Centre,105 - 300 Merganser Drive West,Chestermere,Private,,https://www.jafferyoptical.com/,10 a.m. to 6 p.m.,403-454-7681,,2020-03-28,2020-04-03,,{2CF8527A-0BE5-46EC-A89A-3DD1D25E0D76},POINT (-113.84019952654812 51.037481947689415),-113.84019952654812,51.037481947689415
102,,UCMAS,Learning,103 - 300 Merganser Drive West,Chestermere,Private,,ucmas.ca,,403-796-9101,,2020-03-28,2020-04-03,,{4965D64C-4ECB-4086-B1EE-7B8DF5500121},POINT (-113.84019801558182 51.03736020872529),-113.84019801558182,51.03736020872529
103,,JESSICA'S RESTURANT,Restaurant,112 - 300 Merganser Drive West,Chestermere,Private,,www.jessicarestaurant.com,4 p.m. to 9 p.m.,403-272-3828,,2020-03-28,2020-04-03,,{387C54C2-B7C6-4FD0-A0A5-144460EC1C89},POINT (-113.83941447624493 51.03769371463336),-113.83941447624493,51.03769371463336
104,,LV NAILS & SPA,Cosmetic,110 - 300 Merganser Drive West,Chestermere,Private,,,,403-452-2638,,2020-03-28,2020-04-03,,{4AB90830-3CA0-499F-8C0C-7D69986DD95D},POINT (-113.83967115276936 51.037692906871094),-113.83967115276936,51.037692906871094
105,,TRINITY MUSIC INC.,Learning,111 - 300 Merganser Drive West,Chestermere,Private,,https://trinitymusic.ca,9 a.m. to 5 p.m.,,,2020-03-28,2020-04-03,,{DEB52717-3738-4513-B416-B762F672FBA8},POINT (-113.83954428909169 51.03769330397384),-113.83954428909169,51.03769330397384
106,,CHESTERMERE FOOD BANK,,105 - 100 Rainbow Rd,Chestermere,,,http://chestermerefoodbank.ca/,11 a.m. to 1 p.m.,403-273-0777,,2020-03-28,2020-04-03,,{3325E1DA-86A5-4E98-9681-D578BD66756E},POINT (-113.84041532703219 51.02496539368874),-113.84041532703219,51.02496539368874
107,,CHESTERMERE LAKE CROSSFIT,Fitness Facility,211 - 100 Rainbow Rd,Chestermere,,,https://www.chestermerelakecrossfit.com/,,,,2020-03-28,2020-04-03,,{F8039AD6-4A43-4ABF-9862-3344FA6C6101},POINT (-113.8400619639354 51.02492668840672),-113.8400619639354,51.02492668840672
108,,CHESTERMERE LAW LLP,Legal Services,401 - 320 West Creek Dr,Chestermere,,,http://www.chestermerelawyer.com/,8:30 a.m. to 4:30 p.m.,587-470-7373,,2020-03-28,2020-04-03,,{D69A3EB9-37D2-42F9-BAB6-B083E6596B7E},POINT (-113.84163752629875 51.02955136847954),-113.84163752629875,51.02955136847954
109,,Canadian Tae Kwon Do College,Fitness Facility,207 - 100 Rainbow Rd,Chestermere,,,https://canadiantkdcollege.ca/,4:30 p.m. to 8:30 p.m.,403-277-3420,,2020-03-28,2020-04-03,,{D82FE190-A7BC-4B92-81D3-C36121491832},POINT (-113.84012463759616 51.025579938403986),-113.84012463759616,51.025579938403986
110,,LIQUOR DISCOUNTER,Liquor Store,302 - 320 W Creek Dr,Chestermere,,,https://liquor-discounter-chestermere.business.site/?utm_source=gmb&utm_medium=referral,10 a.m. to 9 p.m.,403-719-3992,,2020-03-28,2020-04-03,,{4BD58E14-A2E5-4A37-83EA-475BAB09D435},POINT (-113.84160510071025 51.02895687202392),-113.84160510071025,51.02895687202392
111,,MARKJOEL'S BAKESHOP & MINI GROCERY,Restaurant,108 - 320 West Creek Drive,Chestermere,,,https://www.facebook.com/Markjoels-Bakeshop-and-Mini-Grocery-116118386447602/,,403-455-5155,,2020-03-28,2020-04-03,,{7C30A2B2-DB86-4659-A1F6-ADB425F3DE12},POINT (-113.84164113572956 51.029184916368926),-113.84164113572956,51.029184916368926
112,,THE LAKESHORE ESTHETICS,Cosmetic,202 - 320 West Creek Dr,Chestermere,,,https://www.thelakeshorespa.com/,10 a.m. to 8 p.m.,403-273-5253,,2020-03-28,2020-04-03,,{EEAE7A8D-00B6-41EA-A1E6-45890BF09813},POINT (-113.84060082913837 51.02983745834274),-113.84060082913837,51.02983745834274
114,,Diversion Salon,Dental,205 100 Rainbow Rd,Chestermere,,,https://www.diversionsalon.ca/,12 p.m. to 7 p.m.,587-470-5605,,2020-03-28,2020-04-03,,{CE9D322A-26BB-4416-BA62-C3471364F5BB},POINT (-113.84094392898304 51.02535889216483),-113.84094392898304,51.02535889216483
115,,WISE & COMPANY PROFESSIONAL ACCOUNTANTS,Accounting Services,102 - 120 John Morris Way,Chestermere,,,https://www.wiseandcompany.ca/,8 a.m. to 5 p.m.,403-930-3330,,2020-03-28,2020-04-03,,{EAF384C9-D93F-4390-B6E4-554686894BCA},POINT (-113.82304219330496 51.05090699775942),-113.82304219330496,51.05090699775942
116,,LAVI NAILS & SPA,Cosmetic,103 - 120 John Morris Way,Chestermere,,,http://www.lavinailsandspa.com/,10 a.m. to 7 p.m.,403-235-3388,,2020-03-28,2020-04-03,,{2F78CCDD-8A28-41E8-91CA-3B56B0FE4D68},POINT (-113.82301020609431 51.050829613550064),-113.82301020609431,51.050829613550064
117,,CHESTERMERE LAKE REGISTRY,Registry,402 - 100 Marina Dr,Chestermere,,,https://www.chestermerelakeregistry.ca/,10 a.m. to 5 p.m.,403-207-5510,,2020-03-28,2020-04-03,,{ECF305E5-2836-4F76-B713-2CE6ED1044B9},POINT (-113.82930941025886 51.04801515662598),-113.82930941025886,51.04801515662598
118,,Tirecraft,Automobile Services,100 Marina Dr,Chestermere,,,https://tirecraft.com/chestermere-tirecraft/,7:30 a.m. to 5:30 p.m.,403-204-9050,,2020-03-29,2020-04-03,,{6795DE10-CA9E-4C20-9E1F-18800D82CEB2},POINT (-113.82936464766568 51.04863804012102),-113.82936464766568,51.04863804012102
119,,Dollarama,Retail,180 Marina Dr,Chestermere,,,,9 a.m. to 8 p.m.,403-235-2576,,2020-03-29,2020-04-03,,{7F17EB4A-65BB-4E75-AFE3-C2E9594CB0B7},POINT (-113.82924307237008 51.04905326157644),-113.82924307237008,51.04905326157644
120,,9Round Chesteremere,Fitness Facility,110 - 180 Marina Dr,Chestermere,,,https://www.9round.ca/fitness/Chestermere-AB-x9283,"6 a.m. to 1 p.m., 4 to 8 p.m.",587-333-5570,,2020-03-29,2020-04-03,,{DFD00A61-8860-43AB-B2A3-B4CDECFA7222},POINT (-113.82928300787437 51.04930367301245),-113.82928300787437,51.04930367301245
121,,CellNet Bell,Retail,405 - 100 Marina Dr,Chestermere,,,http://storelocator.bell.ca/bellca/en/AB/Chestermere/CellNet/BE430,,403-770-1883,,2020-03-29,2020-04-03,,{58AF8F61-468D-49F4-85CF-5374728F10B0},POINT (-113.82941010241906 51.048132193228916),-113.82941010241906,51.048132193228916
122,,"BROWN'S SOCIAL HOUSE, RESTARAUNT & BAR",Restaurant,501 - 175 Chestermere Station Way,Chestermere,Private,(403) 273-0157,https://brownssocialhouse.com/chestermere/,4 p.m. to 9 p.m.,403-273-0157,,2020-03-29,2020-04-03,,{DD9478C7-81A7-4B3C-90DD-A661744F96B4},POINT (-113.82700321393897 51.04907315645337),-113.82700321393897,51.04907315645337
123,,Edo Japan,Restaurant,504 - 175 Chestermere Station Way,Chestermere,Private,(403) 273-0157,edojapan.com,11 a.m. to 8 p.m.,587-470-9283,,2020-03-29,2020-04-03,,{5A5534EB-4559-47BF-B009-F22F9F20CEA6},POINT (-113.82683018763547 51.049110664674345),-113.82683018763547,51.049110664674345
124,,BOSTON PIZZA,Restaurant,200 - 196 Chestermere Station Way,Chestermere,Private,(403) 235-0110,https://bostonpizza.com/en/locations/chestermere.html,11 a.m. to 11 p.m.,403-235-0110,,2020-03-29,2020-04-03,,{7429DAB1-39EE-4E37-A88D-AFB3A2792D1A},POINT (-113.82636980644223 51.04861327477767),-113.82636980644223,51.04861327477767
125,,GAS PLUS CONVENIENCE STORE,Convenience store,400 Merganser Drive West,Chestermere,Private,,,,403-718-0068,,2020-03-31,2020-04-03,,{1CA652E9-0D5A-4920-9DD9-9D678DCE65E5},POINT (-113.83888378840598 51.03831454243663),-113.83888378840598,51.03831454243663
126,,GAS PLUS GAS STATION,Gas Station,400 Merganser Drive West,Chestermere,Private,,,,403-718-0068,,2020-03-31,2020-04-03,,{78CF9408-311E-4326-8FB5-F036CE76DEB6},POINT (-113.838550209805 51.038177925481165),-113.838550209805,51.038177925481165
127,,CHESTERMERE PIZZA,Restaurant,106 - 300 Merganser Drive West,Chestermere,Private,,www.chestermerepizza.ca,12 p.m. to 9 p.m.,403-273-6565,,2020-04-02,2020-04-03,,{FDF84DAB-8748-48C0-9706-382FEDDA92CE},POINT (-113.8401502835992 51.037587906692515),-113.8401502835992,51.037587906692515
128,,CHESTERMERE PROFESSIONAL PHARMACY,Pharmacy,106B- 300 Merganser Drive West,Chestermere,Private,,,8:30 a.m. to 7:30 p.m.,403-719-8270,,2020-04-02,2020-04-03,,{1F3412A3-0E20-47DF-9567-7043E8FF3C44},POINT (-113.84026001370947 51.03759653112707),-113.84026001370947,51.03759653112707
129,,GLOBAL LIQUOR STORE,Liquor Store,107- 300 Merganser Drive West,Chestermere,Private,,,10 a.m. to 12 a.m.,403-452-7935,,2020-04-02,2020-04-03,,{65C87E39-E051-4A0F-9D8C-E20D2519628B},POINT (-113.84001809201355 51.037649394447286),-113.84001809201355,51.037649394447286
130,,CHESTERMERE DENTAL,Dental,104 - 300 Merganser Drive West,Chestermere,Private,,www.chestermeredentalcare.com,11 a.m. to 7 p.m.,403-263-8512,,2020-04-02,2020-04-03,,{B2F4BF08-5F7E-4E98-916F-973462DDE535},POINT (-113.84019863362273 51.037419703348746),-113.84019863362273,51.037419703348746
131,,YUME SUSHI,Restaurant,401 - 100 Marina Drive,Chestermere,,,,,403-387-3392,take out/ delivery only,2020-04-02,2020-04-03,,{72EC172C-15E5-4EC2-AD1A-A4073405F377},POINT (-113.82929843733767 51.04793237597512),-113.82929843733767,51.04793237597512
132,,TD CANADA TRUST,Bank,200 - 156 Chestermere Station Way,Chestermere,,,https://www.td.com/ca/en/personal-banking/branch-locator/#/?id=8108&src=local:b:can,10 a.m. to 4 p.m.,403-204-7940,,2020-03-27,2020-04-03,,{7AB0A872-9BC0-4093-A08A-6CF984A10C6E},POINT (-113.82508022185128 51.049405342993),-113.82508022185128,51.049405342993
133,,PINKS AND PLATES,Learning,100 - 133 Main Street,Chestermere,,,https://www.pinksandplates.com/,8:30 a.m. to 4:30 p.m.,403-248-0171,,2020-03-27,2020-04-03,,{DD280F9F-94B0-4DCE-9F8B-69F0294E5035},POINT (-113.82481430076426 51.05252618725042),-113.82481430076426,51.05252618725042
134,,CIRCLE K,Convenience store,301 - 320 W Creek Dr,Chestermere,,,https://www.circlek.com/store-locator/Canada/chestermere/301-320-west-creek-drive/22191,Open 24 Hours,403-235-2852,,2020-03-28,2020-04-03,,{B110360C-F9A7-41FA-84C8-131B74A8945B},POINT (-113.84159937035705 51.029068591220785),-113.84159937035705,51.029068591220785
135,,ALBERTA HEALTH SERVICES,Medical Centre,104 - 288 Kinniburgh Blvd,Chestermere,,,https://www.albertahealthservices.ca/amh/amh.aspx,8 a.m. to 4:30 p.m.,403-365-5400,,2020-03-28,2020-04-03,,{C2D4FBFB-2C3C-4129-A021-82CE98B4AB88},POINT (-113.80977969821555 51.02236032252861),-113.80977969821555,51.02236032252861
136,,CHESTERMERE ADDICTION & MENTAL HEALTH,Medical Centre,288 Kinniburgh Blvd,Chestermere,,,https://www.albertahealthservices.ca/findhealth/Service.aspx?id=1015555&serviceAtFacilityID=1103928,8am to 4 pm,403-365-5400,Appointments are via phone,2020-04-03,2020-04-03,,{80E7BB3B-FE15-412B-9F8D-51E329BD142D},POINT (-113.81009396842781 51.022407117022155),-113.81009396842781,51.022407117022155
137,,VANTAGE INTEGRATIVE HEALTH & WELLNESS,Medical Centre,102-288 Kinniburgh Blvd,Chestermere,,,https://www.vantageintegrativehealth.com/,9 a.m. to 4 p.m.,403-569-1141,,2020-04-03,2020-04-03,,{ED6BE86D-96EF-4784-86C1-FFA93E1B1F82},POINT (-113.81013224115048 51.022346222128185),-113.81013224115048,51.022346222128185
138,,CALGARY LABORATORY SERVICES,Medical Centre,288 Kinniburgh Blvd,Chestermere,,,,,,,2020-04-03,2020-04-03,,{5B0F20F3-E6D6-466D-829D-62B5305506F9},POINT (-113.80999265553176 51.022465179218734),-113.80999265553176,51.022465179218734
139,,MAGNA ENGINEERING,,109 East Chestermere Dr,Chestermere,,,https:/https://www.magnaengineering.ca//www.docksidebarandgrill.com/,8:30 a.m. to 4:30 p.m.,403-470-2333,,2020-03-27,2020-04-03,,{37413EA6-A2B3-4041-A2BF-6538854A48B3},POINT (-113.81638428645755 51.05179999858804),-113.81638428645755,51.05179999858804
140,,LAKE CITY CANNABIS,,102 - 109 East Chestermere Dr,Chestermere,,,https://www.lakecitycannabis.ca/,10 a.m. to 10 p.m.,403-910-2618,,2020-03-27,2020-04-03,,{E02ABAE4-E1B8-45F8-A907-E7FD64695F82},POINT (-113.81623027748861 51.051849106849),-113.81623027748861,51.051849106849
141,,Little Caesars Pizza,Restaurant,"100 Marina Dr, Chestermere, AB T1X 0A9",,Private,(403) 272-5545,https://littlecaesars.ca/en-ca/,Open 24 hours,(403) 272-5545,,,,Unknown,{C9A6C6D0-8DBB-4045-8F4F-8A37EA54CABF},POINT (-113.82929173051575 51.04833541499688),-113.82929173051575,51.04833541499688
142,,Pita King,Restaurant,"100 Marina Dr, Chestermere, AB T1X 1N2",,,,https://www.pitakingchestermere.com/,11 am to 8 pm,(403) 207-5111,,,,Unknown,{BEAE81E9-1BE1-4695-A6AF-6870CAEDDDDB},POINT (-113.82943777951297 51.04827003286001),-113.82943777951297,51.04827003286001
143,,Alberta Hearing Center,Medical Centre,"175 Chestermere Station Way #201, Chestermere, AB T1X 1V3",Chestermere,,,https://albertahearingcenter.ca/,,403-668-7776,,,,Unknown,{2EFEC305-29FA-4175-8F91-3A124337167C},POINT (-113.82699603729816 51.050449097235656),-113.82699603729816,51.050449097235656
144,,,,,,,,,,,,,,Unknown,{14CCC1DE-08FA-4387-9B7D-D0A4BB76F2A1},POINT (-113.82467201570809 51.0458293518613),-113.82467201570809,51.0458293518613
